NORAD_CAT_ID,OBJECT_NAME,OBJECT_TYPE,EPOCH,MEAN_MOTION,ECCENTRICITY,INCLINATION,RA_OF_ASC_NODE,ARG_OF_PERICENTER,MEAN_ANOMALY,BSTAR,MEAN_MOTION_DOT,MEAN_MOTION_DDOT,TLE_LINE0,TLE_LINE1,TLE_LINE2,SEMIMAJOR_AXIS,PERIOD,APOGEE,PERIGEE,DECAYED
55671.0,STARLINK-5460,PAYLOAD,2023-09-08 15:26:43,14.9930211,0.000304,69.9988,306.3796,273.2548,86.8264,7.9218e-05,8.76e-06,0.0,0 STARLINK-5460,1 55671U 23021AV  23251.64355772  .00000876  00000-0  79218-4 0  9996,2 55671  69.9988 306.3796 0003040 273.2548  86.8264 14.99302110 32523,6947.188,96.045,571.165,566.941,0.0
55671.0,STARLINK-5460,PAYLOAD,2023-09-09 10:39:35,14.99297215,0.0002975,69.9987,304.3577,272.2348,87.8471,-2.7922e-06,-1.28e-06,0.0,0 STARLINK-5460,1 55671U 23021AV  23252.44416604 -.00000128  00000-0 -27922-5 0  9995,2 55671  69.9987 304.3577 0002975 272.2348  87.8471 14.99297215 32340,6947.203,96.045,571.135,567.002,0.0
55671.0,STARLINK-5460,PAYLOAD,2023-09-09 13:51:44,14.99298186,0.0002962,69.9987,304.0207,272.1117,87.9703,8.5205e-06,1e-07,0.0,0 STARLINK-5460,1 55671U 23021AV  23252.57759893  .00000010  00000-0  85205-5 0  9995,2 55671  69.9987 304.0207 0002962 272.1117  87.9703 14.99298186 32668,6947.2,96.045,571.123,567.008,0.0
55671.0,STARLINK-5460,PAYLOAD,2023-09-10 10:41:24,14.98801045,0.0003446,69.9984,301.8327,271.4421,88.6343,-0.0051676,-0.00061964,0.0,0 STARLINK-5460,1 55671U 23021AV  23253.44542394 -.00061964  00000-0 -51676-2 0  9997,2 55671  69.9984 301.8327 0003446 271.4421  88.6343 14.98801045 32493,6948.737,96.077,572.996,568.207,0.0
55671.0,STARLINK-5460,PAYLOAD,2023-09-10 13:53:38,14.98768274,0.0003187,69.9987,301.4964,271.1449,88.9345,-0.0053482,-0.00064051,0.0,0 STARLINK-5460,1 55671U 23021AV  23253.57892273 -.00064051  00000-0 -53482-2 0  9992,2 55671  69.9987 301.4964 0003187 271.1449  88.9345 14.98768274 32815,6948.838,96.079,572.917,568.488,0.0
55671.0,STARLINK-5460,PAYLOAD,2023-09-11 10:43:06,14.98680275,0.0003221,69.9979,299.3073,262.1644,97.9149,-0.0050764,-0.00060691,0.0,0 STARLINK-5460,1 55671U 23021AV  23254.44659996 -.00060691  00000-0 -50764-2 0  9998,2 55671  69.9979 299.3073 0003221 262.1644  97.9149 14.98680275 32645,6949.11,96.085,573.213,568.737,0.0
55671.0,STARLINK-5460,PAYLOAD,2023-09-11 12:19:13,14.98670783,0.0003358,69.998,299.139,267.0977,92.9798,-0.0049681,-0.00059396,0.0,0 STARLINK-5460,1 55671U 23021AV  23254.51334810 -.00059396  00000-0 -49681-2 0  9997,2 55671  69.9980 299.1390 0003358 267.0977  92.9798 14.98670783 32953,6949.139,96.085,573.338,568.671,0.0
55671.0,STARLINK-5460,PAYLOAD,2023-09-12 02:44:18,14.98582426,0.0003727,69.9977,297.6236,262.8865,97.1871,-0.0039852,-0.00047635,0.0,0 STARLINK-5460,1 55671U 23021AV  23255.11409729 -.00047635  00000-0 -39852-2 0  9998,2 55671  69.9977 297.6236 0003727 262.8865  97.1871 14.98582426 32742,6949.412,96.091,573.867,568.687,0.0
55671.0,STARLINK-5460,PAYLOAD,2023-09-12 10:44:56,14.98477469,0.0004122,69.9977,296.7819,274.2341,85.8347,-0.0023278,-0.00027866,0.0,0 STARLINK-5460,1 55671U 23021AV  23255.44787786 -.00027866  00000-0 -23278-2 0  9995,2 55671  69.9977 296.7819 0004122 274.2341  85.8347 14.98477469 32792,6949.737,96.098,574.467,568.737,0.0
55671.0,STARLINK-5460,PAYLOAD,2023-09-12 12:21:04,14.9847543,0.0004122,69.9977,296.6136,275.8572,84.2117,-0.0022767,-0.00027258,0.0,0 STARLINK-5460,1 55671U 23021AV  23255.51463310 -.00027258  00000-0 -22767-2 0  9994,2 55671  69.9977 296.6136 0004122 275.8572  84.2117 14.98475430 33106,6949.743,96.098,574.473,568.744,0.0
55671.0,STARLINK-5460,PAYLOAD,2023-09-12 22:00:00,14.98294886,0.0003508,69.9995,295.5999,269.1446,98.7996,0.0045986,0.00055162,0.0,0 STARLINK-5460,1 55671U 23021AV  23255.91667824  .00055162  00000-0  45986-2 0  9995,2 55671  69.9995 295.5999 0003508 269.1446  98.7996 14.98294886 32865,6950.301,96.109,574.605,569.728,0.0
55671.0,STARLINK-5460,PAYLOAD,2023-09-13 14:00:01,14.98318396,0.0003582,69.9995,293.9188,272.1655,90.7574,7.0514e-05,7.48e-06,0.0,0 STARLINK-5460,1 55671U 23021AV  23256.58334491  .00000748  00000-0  70514-4 0  9997,2 55671  69.9995 293.9188 0003582 272.1655  90.7574 14.98318396 32963,6950.229,96.108,574.583,569.604,0.0
55671.0,STARLINK-5460,PAYLOAD,2023-09-13 22:00:00,14.98278874,0.0003581,69.9997,293.0783,266.3854,94.0122,0.0052564,0.00063112,0.0,0 STARLINK-5460,1 55671U 23021AV  23256.91667824  .00063112  00000-0  52564-2 0  9990,2 55671  69.9997 293.0783 0003581 266.3854  94.0122 14.98278874  5919,6950.351,96.11,574.705,569.727,0.0
55671.0,STARLINK-5460,PAYLOAD,2023-09-14 02:48:21,14.98320684,0.0003108,69.9993,292.5734,271.2774,88.8029,-1.9465e-05,-3.25e-06,0.0,0 STARLINK-5460,1 55671U 23021AV  23257.11691028 -.00000325  00000-0 -19465-4 0  9990,2 55671  69.9993 292.5734 0003108 271.2774  88.8029 14.98320684 33045,6950.222,96.108,574.247,569.927,0.0
55671.0,STARLINK-5460,PAYLOAD,2023-09-14 12:25:09,14.98318285,0.000306,69.999,291.5635,265.5237,94.5572,-8.8005e-05,-1.143e-05,0.0,0 STARLINK-5460,1 55671U 23021AV  23257.51747496 -.00001143  00000-0 -88005-4 0  9990,2 55671  69.9990 291.5635 0003060 265.5237  94.5572 14.98318285 33409,6950.229,96.108,574.221,569.967,0.0
55671.0,STARLINK-5460,PAYLOAD,2023-09-15 02:50:22,14.98323232,0.0003424,69.998,290.0477,272.0092,88.0674,-3.8425e-05,-5.51e-06,0.0,0 STARLINK-5460,1 55671U 23021AV  23258.11831165 -.00000551  00000-0 -38425-4 0  9997,2 55671  69.9980 290.0477 0003424 272.0092  88.0674 14.98323232 33197,6950.214,96.107,574.459,569.699,0.0
55671.0,STARLINK-5460,PAYLOAD,2023-09-15 12:27:10,14.98324923,0.0003069,69.9989,289.0386,264.4263,95.6546,-5.8317e-06,-1.63e-06,0.0,0 STARLINK-5460,1 55671U 23021AV  23258.51887095 -.00000163  00000-0 -58317-5 0  9996,2 55671  69.9989 289.0386 0003069 264.4263  95.6546 14.98324923 33553,6950.209,96.107,574.207,569.941,0.0
55671.0,STARLINK-5460,PAYLOAD,2023-09-16 02:52:22,14.98330417,0.0003342,69.9978,287.5234,268.6123,91.4653,7.1372e-05,7.59e-06,0.0,0 STARLINK-5460,1 55671U 23021AV  23259.11970643  .00000759  00000-0  71372-4 0  9999,2 55671  69.9978 287.5234 0003342 268.6123  91.4653 14.98330417 33346,6950.192,96.107,574.379,569.734,0.0
55671.0,STARLINK-5460,PAYLOAD,2023-09-16 12:29:10,14.9832979,0.0003208,69.9985,286.5133,263.099,96.9804,0.00016783,1.91e-05,0.0,0 STARLINK-5460,1 55671U 23021AV  23259.52026421  .00001910  00000-0  16783-3 0  9994,2 55671  69.9985 286.5133 0003208 263.0990  96.9804 14.98329790 33703,6950.194,96.107,574.288,569.829,0.0
55671.0,STARLINK-5460,PAYLOAD,2023-09-17 10:55:03,14.98333862,0.00033,69.9988,284.1566,265.404,94.6743,8.3775e-05,9.07e-06,0.0,0 STARLINK-5460,1 55671U 23021AV  23260.45490213  .00000907  00000-0  83775-4 0  9993,2 55671  69.9988 284.1566 0003300 265.4040  94.6743 14.98333862 33842,6950.181,96.107,574.34,569.752,0.0
55671.0,STARLINK-5460,PAYLOAD,2023-09-18 09:20:56,14.98336359,0.0003244,69.9991,281.8,264.5419,95.537,-8.5109e-05,-1.109e-05,0.0,0 STARLINK-5460,1 55671U 23021AV  23261.38954224 -.00001109  00000-0 -85109-4 0  9993,2 55671  69.9991 281.8000 0003244 264.5419  95.5370 14.98336359 33682,6950.173,96.107,574.293,569.784,0.0
55671.0,STARLINK-5460,PAYLOAD,2023-09-18 10:57:04,14.9833673,0.0003286,69.9991,281.6317,265.3346,94.7438,-8.6036e-05,-1.12e-05,0.0,0 STARLINK-5460,1 55671U 23021AV  23261.45630173 -.00001120  00000-0 -86036-4 0  9998,2 55671  69.9991 281.6317 0003286 265.3346  94.7438 14.98336730 33998,6950.172,96.107,574.321,569.753,0.0
55671.0,STARLINK-5460,PAYLOAD,2023-09-18 18:57:44,14.98333848,0.0003269,69.9993,280.7896,269.2546,90.8238,-3.0887e-05,-4.62e-06,0.0,0 STARLINK-5460,1 55671U 23021AV  23261.79010161 -.00000462  00000-0 -30887-4 0  9995,2 55671  69.9993 280.7896 0003269 269.2546  90.8238 14.98333848 34047,6950.181,96.107,574.318,569.774,0.0
55671.0,STARLINK-5460,PAYLOAD,2023-09-19 09:22:56,14.98336232,0.0003164,69.9997,279.2761,259.5443,100.5359,3.3595e-05,3.08e-06,0.0,0 STARLINK-5460,1 55671U 23021AV  23262.39093596  .00000308  00000-0  33595-4 0  9991,2 55671  69.9997 279.2761 0003164 259.5443 100.5359 14.98336232 33836,6950.174,96.107,574.238,569.84,0.0
55671.0,STARLINK-5460,PAYLOAD,2023-09-20 03:00:26,14.98327785,0.0003223,69.9996,277.423,271.8166,88.2624,2.0189e-06,-6.9e-07,0.0,0 STARLINK-5460,1 55671U 23021AV  23263.12530153 -.00000069  00000-0  20189-5 0  9999,2 55671  69.9996 277.4230 0003223 271.8166  88.2624 14.98327785 33943,6950.2,96.107,574.305,569.825,0.0
55671.0,STARLINK-5460,PAYLOAD,2023-09-20 11:01:06,14.98326437,0.0003318,69.9991,276.5811,268.6067,91.4712,-3.0912e-05,-4.62e-06,0.0,0 STARLINK-5460,1 55671U 23021AV  23263.45910325 -.00000462  00000-0 -30912-4 0  9990,2 55671  69.9991 276.5811 0003318 268.6067  91.4712 14.98326437 34298,6950.204,96.107,574.375,569.763,0.0
55671.0,STARLINK-5460,PAYLOAD,2023-09-21 09:27:00,14.9827613,0.0002936,69.9992,274.2249,270.4458,89.6365,0.00092168,0.00010906,0.0,0 STARLINK-5460,1 55671U 23021AV  23264.39375057  .00010906  00000-0  92168-3 0  9993,2 55671  69.9992 274.2249 0002936 270.4458  89.6365 14.98276130 34139,6950.359,96.11,574.265,570.184,0.0
55671.0,STARLINK-5460,PAYLOAD,2023-09-21 11:03:08,14.98266078,0.0002921,69.9992,274.0564,271.6708,88.4116,0.0011063,0.0001311,0.0,0 STARLINK-5460,1 55671U 23021AV  23264.46051408  .00013110  00000-0  11063-2 0  9996,2 55671  69.9992 274.0564 0002921 271.6708  88.4116 14.98266078 34447,6950.391,96.111,574.286,570.225,0.0
55671.0,STARLINK-5460,PAYLOAD,2023-09-21 17:27:39,14.98336534,0.0003407,69.999,273.3831,271.8181,88.2588,-9.383e-05,-1.213e-05,0.0,0 STARLINK-5460,1 55671U 23021AV  23264.72753780 -.00001213  00000-0 -93830-4 0  9994,2 55671  69.9990 273.3831 0003407 271.8181  88.2588 14.98336534 34188,6950.173,96.107,574.406,569.67,0.0
55671.0,STARLINK-5460,PAYLOAD,2023-09-22 04:40:36,14.98318634,0.0003523,69.9976,272.2034,271.8459,88.2296,-9.5473e-05,-1.232e-05,0.0,0 STARLINK-5460,1 55671U 23021AV  23265.19487046 -.00001232  00000-0 -95473-4 0  9991,2 55671  69.9976 272.2034 0003523 271.8459  88.2296 14.98318634 34257,6950.228,96.108,574.542,569.644,0.0
